STARLINK-31701          
1 59582U 24076U   26068.24059664  .00050384  00000+0  18223-2 0  9993
2 59582  43.0036  11.5643 0001188 283.6526  76.4193 15.27682506106343
FLOCK 4G-5              
1 62663U 25009BG  26068.45638436  .00011278  00000+0  40688-3 0  9997
2 62663  97.4058 151.2478 0002094 314.5072  45.5996 15.28679529 63699
